{"fetched_at":"2026-07-11T09:24:00.837Z","source":"https://celestrak.org/NORAD/elements/gp.php?GROUP=spire&FORMAT=JSON","constellation":"spire","records":[{"OBJECT_NAME":"LEMUR-1","OBJECT_ID":"2014-033AL","EPOCH":"2026-07-11T05:01:47.209152","CLASSIFICATION_TYPE":"U","MEAN_MOTION":14.85329733,"ECCENTRICITY":0.0048123,"INCLINATION":97.7902,"RA_OF_ASC_NODE":341.4854,"ARG_OF_PERICENTER":1.0839,"MEAN_ANOMALY":359.0472,"EPHEMERIS_TYPE":0,"NORAD_CAT_ID":40044,"ELEMENT_SET_NO":999,"REV_AT_EPOCH":64903,"BSTAR":0.00011416,"MEAN_MOTION_DOT":0.00000946,"MEAN_MOTION_DDOT":0},{"OBJECT_NAME":"LEMUR-2-GREENBERG","OBJECT_ID":"2017-042N","EPOCH":"2026-07-09T11:53:19.376160","CLASSIFICATION_TYPE":"U","MEAN_MOTION":15.32031511,"ECCENTRICITY":0.00071356,"INCLINATION":97.3831,"RA_OF_ASC_NODE":11.0293,"ARG_OF_PERICENTER":283.6729,"MEAN_ANOMALY":76.3718,"EPHEMERIS_TYPE":0,"NORAD_CAT_ID":42837,"ELEMENT_SET_NO":999,"REV_AT_EPOCH":49180,"BSTAR":0.0003749711,"MEAN_MOTION_DOT":0.00011532,"MEAN_MOTION_DDOT":0},{"OBJECT_NAME":"LEMUR-2-ANDIS","OBJECT_ID":"2017-042P","EPOCH":"2026-07-10T23:17:45.191616","CLASSIFICATION_TYPE":"U","MEAN_MOTION":15.35809937,"ECCENTRICITY":0.0007114,"INCLINATION":97.3678,"RA_OF_ASC_NODE":12.7686,"ARG_OF_PERICENTER":276.1395,"MEAN_ANOMALY":83.9038,"EPHEMERIS_TYPE":0,"NORAD_CAT_ID":42838,"ELEMENT_SET_NO":999,"REV_AT_EPOCH":49210,"BSTAR":0.00038815,"MEAN_MOTION_DOT":0.00013461,"MEAN_MOTION_DDOT":0},{"OBJECT_NAME":"LEMUR-2-MONSON","OBJECT_ID":"2017-042Q","EPOCH":"2026-07-10T11:15:45.883584","CLASSIFICATION_TYPE":"U","MEAN_MOTION":15.28674858,"ECCENTRICITY":0.00051568,"INCLINATION":97.4089,"RA_OF_ASC_NODE":11.9359,"ARG_OF_PERICENTER":266.7916,"MEAN_ANOMALY":93.2733,"EPHEMERIS_TYPE":0,"NORAD_CAT_ID":42839,"ELEMENT_SET_NO":999,"REV_AT_EPOCH":49172,"BSTAR":0.00034676682,"MEAN_MOTION_DOT":0.000096,"MEAN_MOTION_DDOT":0},{"OBJECT_NAME":"LEMUR-2-FURIAUS","OBJECT_ID":"2017-042R","EPOCH":"2026-07-10T17:54:39.576960","CLASSIFICATION_TYPE":"U","MEAN_MOTION":15.31036825,"ECCENTRICITY":0.000636,"INCLINATION":97.3778,"RA_OF_ASC_NODE":10.1778,"ARG_OF_PERICENTER":347.2297,"MEAN_ANOMALY":12.8782,"EPHEMERIS_TYPE":0,"NORAD_CAT_ID":42840,"ELEMENT_SET_NO":999,"REV_AT_EPOCH":49181,"BSTAR":0.0004049,"MEAN_MOTION_DOT":0.00012077,"MEAN_MOTION_DDOT":0},{"OBJECT_NAME":"LEMUR-2-PETERG","OBJECT_ID":"2017-042S","EPOCH":"2026-07-11T03:57:07.118208","CLASSIFICATION_TYPE":"U","MEAN_MOTION":15.34930932,"ECCENTRICITY":0.0003025,"INCLINATION":97.3994,"RA_OF_ASC_NODE":17.2517,"ARG_OF_PERICENTER":239.088,"MEAN_ANOMALY":121.0066,"EPHEMERIS_TYPE":0,"NORAD_CAT_ID":42841,"ELEMENT_SET_NO":999,"REV_AT_EPOCH":49211,"BSTAR":0.00036918,"MEAN_MOTION_DOT":0.00012435,"MEAN_MOTION_DDOT":0},{"OBJECT_NAME":"LEMUR-2-DEMBITZ","OBJECT_ID":"2017-042T","EPOCH":"2026-07-10T10:32:25.711872","CLASSIFICATION_TYPE":"U","MEAN_MOTION":15.31014043,"ECCENTRICITY":0.00050513,"INCLINATION":97.383,"RA_OF_ASC_NODE":12.913,"ARG_OF_PERICENTER":296.1188,"MEAN_ANOMALY":63.9533,"EPHEMERIS_TYPE":0,"NORAD_CAT_ID":42842,"ELEMENT_SET_NO":999,"REV_AT_EPOCH":49190,"BSTAR":0.00042317105,"MEAN_MOTION_DOT":0.00012615,"MEAN_MOTION_DDOT":0},{"OBJECT_NAME":"LEMUR-2-ZACHARY","OBJECT_ID":"2017-042W","EPOCH":"2026-07-10T23:48:09.703872","CLASSIFICATION_TYPE":"U","MEAN_MOTION":15.52437029,"ECCENTRICITY":0.0002407,"INCLINATION":97.3583,"RA_OF_ASC_NODE":24.1704,"ARG_OF_PERICENTER":268.6387,"MEAN_ANOMALY":91.459,"EPHEMERIS_TYPE":0,"NORAD_CAT_ID":42845,"ELEMENT_SET_NO":999,"REV_AT_EPOCH":49289,"BSTAR":0.0005114,"MEAN_MOTION_DOT":0.00031231,"MEAN_MOTION_DDOT":0},{"OBJECT_NAME":"LEMUR-2-AMANDA-SVANTE","OBJECT_ID":"2021-034B","EPOCH":"2026-07-11T03:37:09.346368","CLASSIFICATION_TYPE":"U","MEAN_MOTION":15.35790464,"ECCENTRICITY":0.0004319,"INCLINATION":97.5761,"RA_OF_ASC_NODE":271.0917,"ARG_OF_PERICENTER":152.1074,"MEAN_ANOMALY":208.0401,"EPHEMERIS_TYPE":0,"NORAD_CAT_ID":48269,"ELEMENT_SET_NO":999,"REV_AT_EPOCH":28473,"BSTAR":0.00059796,"MEAN_MOTION_DOT":0.00020774,"MEAN_MOTION_DDOT":0},{"OBJECT_NAME":"LEMUR-2-SPECIAL-K","OBJECT_ID":"2021-034F","EPOCH":"2026-07-09T11:36:21.286080","CLASSIFICATION_TYPE":"U","MEAN_MOTION":15.72652165,"ECCENTRICITY":0.00060947,"INCLINATION":97.5638,"RA_OF_ASC_NODE":279.081,"ARG_OF_PERICENTER":220.1944,"MEAN_ANOMALY":139.8869,"EPHEMERIS_TYPE":0,"NORAD_CAT_ID":48273,"ELEMENT_SET_NO":999,"REV_AT_EPOCH":28518,"BSTAR":0.001370293,"MEAN_MOTION_DOT":0.00187516,"MEAN_MOTION_DDOT":0},{"OBJECT_NAME":"LEMUR-2-EMBRIONOVIS","OBJECT_ID":"2023-084AQ","EPOCH":"2026-07-10T08:47:03.778944","CLASSIFICATION_TYPE":"U","MEAN_MOTION":15.38146742,"ECCENTRICITY":0.00079165,"INCLINATION":97.6309,"RA_OF_ASC_NODE":336.4682,"ARG_OF_PERICENTER":225.0673,"MEAN_ANOMALY":134.993,"EPHEMERIS_TYPE":0,"NORAD_CAT_ID":56970,"ELEMENT_SET_NO":999,"REV_AT_EPOCH":17124,"BSTAR":0.0002788,"MEAN_MOTION_DOT":0.00010396,"MEAN_MOTION_DDOT":0},{"OBJECT_NAME":"LEMUR-2-DEVERILL-M-T","OBJECT_ID":"2023-100F","EPOCH":"2026-07-10T13:20:15.256032","CLASSIFICATION_TYPE":"U","MEAN_MOTION":15.40939076,"ECCENTRICITY":0.0004687,"INCLINATION":99.4467,"RA_OF_ASC_NODE":237.0829,"ARG_OF_PERICENTER":316.3401,"MEAN_ANOMALY":43.7467,"EPHEMERIS_TYPE":0,"NORAD_CAT_ID":57391,"ELEMENT_SET_NO":999,"REV_AT_EPOCH":16484,"BSTAR":0.00046465,"MEAN_MOTION_DOT":0.00019034,"MEAN_MOTION_DDOT":0},{"OBJECT_NAME":"LEMUR-2-BASS","OBJECT_ID":"2023-174D","EPOCH":"2026-07-11T04:44:20.983776","CLASSIFICATION_TYPE":"U","MEAN_MOTION":15.4390485,"ECCENTRICITY":0.0007846,"INCLINATION":97.3848,"RA_OF_ASC_NODE":277.2573,"ARG_OF_PERICENTER":90.0591,"MEAN_ANOMALY":270.1556,"EPHEMERIS_TYPE":0,"NORAD_CAT_ID":58259,"ELEMENT_SET_NO":999,"REV_AT_EPOCH":14906,"BSTAR":0.00025589,"MEAN_MOTION_DOT":0.00011552,"MEAN_MOTION_DDOT":0},{"OBJECT_NAME":"LEMUR-2-JK0903EM1407","OBJECT_ID":"2023-174CJ","EPOCH":"2026-07-11T04:31:23.057184","CLASSIFICATION_TYPE":"U","MEAN_MOTION":15.52923968,"ECCENTRICITY":0.0003998,"INCLINATION":97.392,"RA_OF_ASC_NODE":283.3557,"ARG_OF_PERICENTER":46.6877,"MEAN_ANOMALY":313.4709,"EPHEMERIS_TYPE":0,"NORAD_CAT_ID":58336,"ELEMENT_SET_NO":999,"REV_AT_EPOCH":14945,"BSTAR":0.00029037,"MEAN_MOTION_DOT":0.00017977,"MEAN_MOTION_DDOT":0},{"OBJECT_NAME":"LEMUR-2-MJR092620","OBJECT_ID":"2023-174CN","EPOCH":"2026-07-11T04:22:45.624864","CLASSIFICATION_TYPE":"U","MEAN_MOTION":15.45764111,"ECCENTRICITY":0.0005662,"INCLINATION":97.3976,"RA_OF_ASC_NODE":282.6673,"ARG_OF_PERICENTER":43.5679,"MEAN_ANOMALY":316.6016,"EPHEMERIS_TYPE":0,"NORAD_CAT_ID":58340,"ELEMENT_SET_NO":999,"REV_AT_EPOCH":14935,"BSTAR":0.00026143,"MEAN_MOTION_DOT":0.0001257,"MEAN_MOTION_DDOT":0},{"OBJECT_NAME":"LEMUR-2-NIMBUS2000","OBJECT_ID":"2024-022A","EPOCH":"2026-07-11T01:08:58.077024","CLASSIFICATION_TYPE":"U","MEAN_MOTION":15.40997999,"ECCENTRICITY":0.000917,"INCLINATION":97.4093,"RA_OF_ASC_NODE":42.3622,"ARG_OF_PERICENTER":42.4609,"MEAN_ANOMALY":317.7345,"EPHEMERIS_TYPE":0,"NORAD_CAT_ID":58899,"ELEMENT_SET_NO":999,"REV_AT_EPOCH":13594,"BSTAR":0.0003446,"MEAN_MOTION_DOT":0.00014151,"MEAN_MOTION_DDOT":0}]}
